CCSDS_OMM_VERS = 2.0
CREATION_DATE  = 
ORIGINATOR     = 

OBJECT_NAME    = STARLINK-36570
OBJECT_ID      = 2026-020Z
CENTER_NAME    = EARTH
REF_FRAME      = TEME
TIME_SYSTEM    = UTC
MEAN_ELEMENT_THEORY = SGP/SGP4

EPOCH          = 2026-02-16T01:14:41.178336
MEAN_MOTION    = 15.76332076
ECCENTRICITY   = .00020309
INCLINATION    = 42.9982
RA_OF_ASC_NODE = 273.4459
ARG_OF_PERICENTER = 264.8877
MEAN_ANOMALY   = 95.1761

EPHEMERIS_TYPE = 0
CLASSIFICATION_TYPE = U
NORAD_CAT_ID   = 67640
ELEMENT_SET_NO = 999
REV_AT_EPOCH   = 267
BSTAR          = .42439526E-3
MEAN_MOTION_DOT = .69083E-3
MEAN_MOTION_DDOT = 0

CCSDS_OMM_VERS = 2.0
CREATION_DATE  = 
ORIGINATOR     = 

OBJECT_NAME    = STARLINK-36514
OBJECT_ID      = 2026-020AA
CENTER_NAME    = EARTH
REF_FRAME      = TEME
TIME_SYSTEM    = UTC
MEAN_ELEMENT_THEORY = SGP/SGP4

EPOCH          = 2026-02-15T23:21:18.210816
MEAN_MOTION    = 15.82076642
ECCENTRICITY   = .0002102
INCLINATION    = 42.9971
RA_OF_ASC_NODE = 273.7083
ARG_OF_PERICENTER = 287.5900
MEAN_ANOMALY   = 72.4742

EPHEMERIS_TYPE = 0
CLASSIFICATION_TYPE = U
NORAD_CAT_ID   = 67641
ELEMENT_SET_NO = 999
REV_AT_EPOCH   = 266
BSTAR          = .15176E-2
MEAN_MOTION_DOT = .33254E-2
MEAN_MOTION_DDOT = 0

CCSDS_OMM_VERS = 2.0
CREATION_DATE  = 
ORIGINATOR     = 

OBJECT_NAME    = STARLINK-36556
OBJECT_ID      = 2026-020AB
CENTER_NAME    = EARTH
REF_FRAME      = TEME
TIME_SYSTEM    = UTC
MEAN_ELEMENT_THEORY = SGP/SGP4

EPOCH          = 2026-02-14T21:35:48.513120
MEAN_MOTION    = 15.81195695
ECCENTRICITY   = .00009655
INCLINATION    = 42.9973
RA_OF_ASC_NODE = 280.2837
ARG_OF_PERICENTER = 131.0329
MEAN_ANOMALY   = 229.0626

EPHEMERIS_TYPE = 0
CLASSIFICATION_TYPE = U
NORAD_CAT_ID   = 67642
ELEMENT_SET_NO = 999
REV_AT_EPOCH   = 249
BSTAR          = .20882971E-2
MEAN_MOTION_DOT = .44532E-2
MEAN_MOTION_DDOT = 0

CCSDS_OMM_VERS = 2.0
CREATION_DATE  = 
ORIGINATOR     = 

OBJECT_NAME    = STARLINK-36533
OBJECT_ID      = 2026-020AC
CENTER_NAME    = EARTH
REF_FRAME      = TEME
TIME_SYSTEM    = UTC
MEAN_ELEMENT_THEORY = SGP/SGP4

EPOCH          = 2026-02-15T22:15:21.608352
MEAN_MOTION    = 15.76405084
ECCENTRICITY   = .0001831
INCLINATION    = 42.9970
RA_OF_ASC_NODE = 274.2347
ARG_OF_PERICENTER = 284.6112
MEAN_ANOMALY   = 75.4554

EPHEMERIS_TYPE = 0
CLASSIFICATION_TYPE = U
NORAD_CAT_ID   = 67643
ELEMENT_SET_NO = 999
REV_AT_EPOCH   = 265
BSTAR          = .1361E-2
MEAN_MOTION_DOT = .227581E-2
MEAN_MOTION_DDOT = 0

CCSDS_OMM_VERS = 2.0
CREATION_DATE  = 
ORIGINATOR     = 

OBJECT_NAME    = STARLINK-36623
OBJECT_ID      = 2026-020AD
CENTER_NAME    = EARTH
REF_FRAME      = TEME
TIME_SYSTEM    = UTC
MEAN_ELEMENT_THEORY = SGP/SGP4

EPOCH          = 2026-02-16T01:08:22.989984
MEAN_MOTION    = 15.76399194
ECCENTRICITY   = .00020891
INCLINATION    = 42.9975
RA_OF_ASC_NODE = 273.4091
ARG_OF_PERICENTER = 253.8716
MEAN_ANOMALY   = 106.1924

EPHEMERIS_TYPE = 0
CLASSIFICATION_TYPE = U
NORAD_CAT_ID   = 67644
ELEMENT_SET_NO = 999
REV_AT_EPOCH   = 267
BSTAR          = .10084623E-2
MEAN_MOTION_DOT = .167258E-2
MEAN_MOTION_DDOT = 0

CCSDS_OMM_VERS = 2.0
CREATION_DATE  = 
ORIGINATOR     = 

OBJECT_NAME    = STARLINK-36619
OBJECT_ID      = 2026-020AE
CENTER_NAME    = EARTH
REF_FRAME      = TEME
TIME_SYSTEM    = UTC
MEAN_ELEMENT_THEORY = SGP/SGP4

EPOCH          = 2026-02-16T06:00:02.000160
MEAN_MOTION    = 15.76367160
ECCENTRICITY   = .00020039
INCLINATION    = 42.9982
RA_OF_ASC_NODE = 272.1483
ARG_OF_PERICENTER = 271.5422
MEAN_ANOMALY   = 171.6913

EPHEMERIS_TYPE = 0
CLASSIFICATION_TYPE = U
NORAD_CAT_ID   = 67645
ELEMENT_SET_NO = 999
REV_AT_EPOCH   = 394
BSTAR          = .419199E-3
MEAN_MOTION_DOT = .68332E-3
MEAN_MOTION_DDOT = 0

CCSDS_OMM_VERS = 2.0
CREATION_DATE  = 
ORIGINATOR     = 

OBJECT_NAME    = ALSAT-3B
OBJECT_ID      = 2026-021A
CENTER_NAME    = EARTH
REF_FRAME      = TEME
TIME_SYSTEM    = UTC
MEAN_ELEMENT_THEORY = SGP/SGP4

EPOCH          = 2026-02-16T05:41:56.806656
MEAN_MOTION    = 15.23616928
ECCENTRICITY   = .00121153
INCLINATION    = 97.4715
RA_OF_ASC_NODE = 121.6669
ARG_OF_PERICENTER = 204.9044
MEAN_ANOMALY   = 155.1610

EPHEMERIS_TYPE = 0
CLASSIFICATION_TYPE = U
NORAD_CAT_ID   = 67646
ELEMENT_SET_NO = 999
REV_AT_EPOCH   = 245
BSTAR          = .32540808E-3
MEAN_MOTION_DOT = .7738E-4
MEAN_MOTION_DDOT = 0

CCSDS_OMM_VERS = 2.0
CREATION_DATE  = 
ORIGINATOR     = 

OBJECT_NAME    = CZ-2C R/B
OBJECT_ID      = 2026-021B
CENTER_NAME    = EARTH
REF_FRAME      = TEME
TIME_SYSTEM    = UTC
MEAN_ELEMENT_THEORY = SGP/SGP4

EPOCH          = 2026-02-16T05:46:22.222272
MEAN_MOTION    = 15.23498419
ECCENTRICITY   = .015354
INCLINATION    = 97.6556
RA_OF_ASC_NODE = 122.2779
ARG_OF_PERICENTER = 85.7790
MEAN_ANOMALY   = 276.0976

EPHEMERIS_TYPE = 0
CLASSIFICATION_TYPE = U
NORAD_CAT_ID   = 67647
ELEMENT_SET_NO = 999
REV_AT_EPOCH   = 243
BSTAR          = .43137216E-3
MEAN_MOTION_DOT = .143E-3
MEAN_MOTION_DDOT = 0

CCSDS_OMM_VERS = 2.0
CREATION_DATE  = 
ORIGINATOR     = 

OBJECT_NAME    = STARLINK-36719
OBJECT_ID      = 2026-022A
CENTER_NAME    = EARTH
REF_FRAME      = TEME
TIME_SYSTEM    = UTC
MEAN_ELEMENT_THEORY = SGP/SGP4

EPOCH          = 2026-02-16T06:00:02.000160
MEAN_MOTION    = 15.75187824
ECCENTRICITY   = .00012778
INCLINATION    = 97.2839
RA_OF_ASC_NODE = 80.1578
ARG_OF_PERICENTER = 68.4662
MEAN_ANOMALY   = 269.8090

EPHEMERIS_TYPE = 0
CLASSIFICATION_TYPE = U
NORAD_CAT_ID   = 67648
ELEMENT_SET_NO = 999
REV_AT_EPOCH   = 344
BSTAR          = -.26197107E-4
MEAN_MOTION_DOT = -.4035E-4
MEAN_MOTION_DDOT = 0

CCSDS_OMM_VERS = 2.0
CREATION_DATE  = 
ORIGINATOR     = 

OBJECT_NAME    = STARLINK-36342
OBJECT_ID      = 2026-022B
CENTER_NAME    = EARTH
REF_FRAME      = TEME
TIME_SYSTEM    = UTC
MEAN_ELEMENT_THEORY = SGP/SGP4

EPOCH          = 2026-02-16T06:00:02.000160
MEAN_MOTION    = 15.75179557
ECCENTRICITY   = .00009929
INCLINATION    = 97.2840
RA_OF_ASC_NODE = 80.1591
ARG_OF_PERICENTER = 91.5487
MEAN_ANOMALY   = 250.7298

EPHEMERIS_TYPE = 0
CLASSIFICATION_TYPE = U
NORAD_CAT_ID   = 67649
ELEMENT_SET_NO = 999
REV_AT_EPOCH   = 344
BSTAR          = .17005002E-3
MEAN_MOTION_DOT = .25297E-3
MEAN_MOTION_DDOT = 0

CCSDS_OMM_VERS = 2.0
CREATION_DATE  = 
ORIGINATOR     = 

OBJECT_NAME    = STARLINK-36703
OBJECT_ID      = 2026-022C
CENTER_NAME    = EARTH
REF_FRAME      = TEME
TIME_SYSTEM    = UTC
MEAN_ELEMENT_THEORY = SGP/SGP4

EPOCH          = 2026-02-16T06:00:02.000160
MEAN_MOTION    = 15.75230443
ECCENTRICITY   = .00013989
INCLINATION    = 97.2838
RA_OF_ASC_NODE = 80.1612
ARG_OF_PERICENTER = 93.0954
MEAN_ANOMALY   = 255.1710

EPHEMERIS_TYPE = 0
CLASSIFICATION_TYPE = U
NORAD_CAT_ID   = 67650
ELEMENT_SET_NO = 999
REV_AT_EPOCH   = 344
BSTAR          = -.87853742E-3
MEAN_MOTION_DOT = -.129432E-2
MEAN_MOTION_DDOT = 0

CCSDS_OMM_VERS = 2.0
CREATION_DATE  = 
ORIGINATOR     = 

OBJECT_NAME    = STARLINK-36696
OBJECT_ID      = 2026-022D
CENTER_NAME    = EARTH
REF_FRAME      = TEME
TIME_SYSTEM    = UTC
MEAN_ELEMENT_THEORY = SGP/SGP4

EPOCH          = 2026-02-16T06:00:02.000160
MEAN_MOTION    = 15.75204086
ECCENTRICITY   = .00015353
INCLINATION    = 97.2837
RA_OF_ASC_NODE = 80.1660
ARG_OF_PERICENTER = 88.2043
MEAN_ANOMALY   = 270.0626

EPHEMERIS_TYPE = 0
CLASSIFICATION_TYPE = U
NORAD_CAT_ID   = 67651
ELEMENT_SET_NO = 999
REV_AT_EPOCH   = 344
BSTAR          = -.10049812E-3
MEAN_MOTION_DOT = -.15102E-3
MEAN_MOTION_DDOT = 0

