STARLINK-36570          
1 67640U 26020Z   26047.05186549  .00069083  00000+0  42440-3 0  9992
2 67640  42.9982 273.4459 0002030 264.8877  95.1761 15.76332076  2674
STARLINK-36514          
1 67641U 26020AA  26046.97312744  .00332540  00000+0  15176-2 0  9997
2 67641  42.9971 273.7083 0002102 287.5900  72.4742 15.82076642  2665
STARLINK-36556          
1 67642U 26020AB  26045.89986705  .00445320  00000+0  20883-2 0  9994
2 67642  42.9973 280.2837 0000965 131.0329 229.0626 15.81195695  2492
STARLINK-36533          
1 67643U 26020AC  26046.92733343  .00227581  00000+0  13610-2 0  9995
2 67643  42.9970 274.2347 0001831 284.6112  75.4554 15.76405084  2658
STARLINK-36623          
1 67644U 26020AD  26047.04748831  .00167258  00000+0  10085-2 0  9995
2 67644  42.9975 273.4091 0002089 253.8716 106.1924 15.76399194  2674
STARLINK-36619          
1 67645U 26020AE  26047.25002315  .00068332  00000+0  41920-3 0  9995
2 67645  42.9982 272.1483 0002003 271.5422 171.6913 15.76367160  3945
ALSAT-3B                
1 67646U 26021A   26047.23746304  .00007738  00000+0  32541-3 0  9990
2 67646  97.4715 121.6669 0012115 204.9044 155.1610 15.23616928  2451
CZ-2C R/B               
1 67647U 26021B   26047.24053498  .00014300  00000+0  43137-3 0  9993
2 67647  97.6556 122.2779 0153540  85.7790 276.0976 15.23498419  2436
STARLINK-36719          
1 67648U 26022A   26047.25002315 -.00004035  00000+0 -26197-4 0  9992
2 67648  97.2839  80.1578 0001277  68.4662 269.8090 15.75187824  3442
STARLINK-36342          
1 67649U 26022B   26047.25002315  .00025297  00000+0  17005-3 0  9991
2 67649  97.2840  80.1591 0000992  91.5487 250.7298 15.75179557  3448
STARLINK-36703          
1 67650U 26022C   26047.25002315 -.00129432  00000+0 -87854-3 0  9990
2 67650  97.2838  80.1612 0001398  93.0954 255.1710 15.75230443  3448
STARLINK-36696          
1 67651U 26022D   26047.25002315 -.00015102  00000+0 -10050-3 0  9993
2 67651  97.2837  80.1660 0001535  88.2043 270.0626 15.75204086  3445
